NORAD_CAT_ID,OBJECT_NAME,OBJECT_TYPE,EPOCH,MEAN_MOTION,ECCENTRICITY,INCLINATION,RA_OF_ASC_NODE,ARG_OF_PERICENTER,MEAN_ANOMALY,BSTAR,MEAN_MOTION_DOT,MEAN_MOTION_DDOT,TLE_LINE0,TLE_LINE1,TLE_LINE2,SEMIMAJOR_AXIS,PERIOD,APOGEE,PERIGEE,DECAYED
52476.0,STARLINK-3835,PAYLOAD,2023-08-19 09:35:14,15.08847546,0.000125,53.2173,278.8364,75.624,284.489,8.489e-05,1.064e-05,0.0,0 STARLINK-3835,1 52476U 22049AB  23231.39947083  .00001064  00000-0  84890-4 0  9999,2 52476  53.2173 278.8364 0001250  75.6240 284.4890 15.08847546 71659,6917.857,95.437,540.587,538.858,0.0
52476.0,STARLINK-3835,PAYLOAD,2023-08-20 03:04:29,15.08834483,0.0001337,53.2157,275.5657,77.7059,282.4083,0.00011522,1.546e-05,0.0,0 STARLINK-3835,1 52476U 22049AB  23232.12811694  .00001546  00000-0  11522-3 0  9995,2 52476  53.2157 275.5657 0001337  77.7059 282.4083 15.08834483 71767,6917.897,95.438,540.687,538.837,0.0
52476.0,STARLINK-3835,PAYLOAD,2023-08-21 07:41:25,15.08840017,0.000138,53.2168,270.2124,101.7161,258.3986,2.8749e-05,1.7e-06,0.0,0 STARLINK-3835,1 52476U 22049AB  23233.32043581  .00000170  00000-0  28749-4 0  9992,2 52476  53.2168 270.2124 0001380 101.7161 258.3986 15.08840017 71944,6917.88,95.438,540.7,538.791,0.0
52476.0,STARLINK-3835,PAYLOAD,2023-08-22 10:42:58,15.08839604,0.0001328,53.2167,265.1577,95.3392,264.7752,8.9978e-05,1.144e-05,0.0,0 STARLINK-3835,1 52476U 22049AB  23234.44651595  .00001144  00000-0  89978-4 0  9999,2 52476  53.2167 265.1577 0001328  95.3392 264.7752 15.08839604 72116,6917.882,95.438,540.665,538.828,0.0
52476.0,STARLINK-3835,PAYLOAD,2023-08-23 02:36:50,15.08836545,0.0001392,53.2171,262.1844,98.3876,261.7274,3.5633e-05,2.79e-06,0.0,0 STARLINK-3835,1 52476U 22049AB  23235.10892043  .00000279  00000-0  35633-4 0  9995,2 52476  53.2171 262.1844 0001392  98.3876 261.7274 15.08836545 72214,6917.891,95.438,540.719,538.793,0.0
52476.0,STARLINK-3835,PAYLOAD,2023-08-24 08:49:10,15.08837025,0.0001377,53.217,256.5343,97.01,263.1049,1.9283e-05,1.9e-07,0.0,0 STARLINK-3835,1 52476U 22049AB  23236.36748302  .00000019  00000-0  19283-4 0  9997,2 52476  53.2170 256.5343 0001377  97.0100 263.1049 15.08837025 73483,6917.889,95.438,540.707,538.802,0.0
52476.0,STARLINK-3835,PAYLOAD,2023-08-25 08:39:57,15.08842422,0.0001302,53.216,252.0715,91.8777,268.2364,8.6733e-05,1.093e-05,0.0,0 STARLINK-3835,1 52476U 22049AB  23237.36107920  .00001093  00000-0  86733-4 0  9990,2 52476  53.2160 252.0715 0001302  91.8777 268.2364 15.08842422 73636,6917.873,95.437,540.639,538.837,0.0
52476.0,STARLINK-3835,PAYLOAD,2023-08-26 00:33:49,15.088351,0.0001397,53.2165,249.0981,87.159,272.9562,4.996e-05,5.07e-06,0.0,0 STARLINK-3835,1 52476U 22049AB  23238.02348638  .00000507  00000-0  49960-4 0  9997,2 52476  53.2165 249.0981 0001397  87.1590 272.9562 15.08835100 72655,6917.895,95.438,540.727,538.794,0.0
52476.0,STARLINK-3835,PAYLOAD,2023-08-26 06:55:21,15.08835186,0.0001408,53.2165,247.9085,86.5872,273.5282,4.5529e-05,4.37e-06,0.0,0 STARLINK-3835,1 52476U 22049AB  23238.28844747  .00000437  00000-0  45529-4 0  9996,2 52476  53.2165 247.9085 0001408  86.5872 273.5282 15.08835186 73770,6917.895,95.438,540.734,538.786,0.0
52476.0,STARLINK-3835,PAYLOAD,2023-08-27 00:24:35,15.08845325,0.0001439,53.2165,244.6371,84.8744,275.2412,6.2471e-05,7.07e-06,0.0,0 STARLINK-3835,1 52476U 22049AB  23239.01708094  .00000707  00000-0  62471-4 0  9997,2 52476  53.2165 244.6371 0001439  84.8744 275.2412 15.08845325 72808,6917.864,95.437,540.725,538.734,0.0
52476.0,STARLINK-3835,PAYLOAD,2023-08-27 05:10:44,15.08848235,0.0001436,53.2165,243.7452,86.6691,273.4465,8.7082e-05,1.099e-05,0.0,0 STARLINK-3835,1 52476U 22049AB  23239.21579755  .00001099  00000-0  87082-4 0  9999,2 52476  53.2165 243.7452 0001436  86.6691 273.4465 15.08848235 73910,6917.855,95.437,540.714,538.727,0.0
52476.0,STARLINK-3835,PAYLOAD,2023-08-28 06:36:55,15.08842385,0.0001338,53.2166,238.9858,90.9418,269.1727,4.356e-05,4.05e-06,0.0,0 STARLINK-3835,1 52476U 22049AB  23240.27564027  .00000405  00000-0  43560-4 0  9996,2 52476  53.2166 238.9858 0001338  90.9418 269.1727 15.08842385 72993,6917.873,95.437,540.664,538.812,0.0
52476.0,STARLINK-3835,PAYLOAD,2023-08-29 00:06:10,15.08838684,0.0001412,53.2169,235.7175,90.6037,269.5117,-1.3393e-05,-5.01e-06,0.0,0 STARLINK-3835,1 52476U 22049AB  23241.00428414 -.00000501  00000-0 -13393-4 0  9997,2 52476  53.2169 235.7175 0001412  90.6037 269.5117 15.08838684 73108,6917.884,95.438,540.726,538.773,0.0
52476.0,STARLINK-3835,PAYLOAD,2023-08-29 06:27:42,15.08841193,0.0001426,53.2171,234.5305,75.5239,284.5911,1.4106e-05,-6.3e-07,0.0,0 STARLINK-3835,1 52476U 22049AB  23241.26924244 -.00000063  00000-0  14106-4 0  9992,2 52476  53.2171 234.5305 0001426  75.5239 284.5911 15.08841193 74226,6917.877,95.437,540.728,538.755,0.0
52476.0,STARLINK-3835,PAYLOAD,2023-08-30 04:42:16,15.09373461,0.0001165,53.2161,230.3603,86.615,273.4975,0.0041138,0.00066775,0.0,0 STARLINK-3835,1 52476U 22049AB  23242.19602747  .00066775  00000-0  41138-2 0  9990,2 52476  53.2161 230.3603 0001165  86.6150 273.4975 15.09373461 73286,6916.25,95.404,538.921,537.31,0.0
52476.0,STARLINK-3835,PAYLOAD,2023-08-30 09:28:14,15.09447874,0.0001363,53.2155,229.4652,77.9485,282.166,0.0044781,0.00072926,0.0,0 STARLINK-3835,1 52476U 22049AB  23242.39461362  .00072926  00000-0  44781-2 0  9990,2 52476  53.2155 229.4652 0001363  77.9485 282.1660 15.09447874 73318,6916.023,95.399,538.831,536.945,0.0
52476.0,STARLINK-3835,PAYLOAD,2023-08-30 15:49:24,15.09636352,0.0001348,53.2157,228.278,98.2098,261.9047,0.0057037,0.00093722,0.0,0 STARLINK-3835,1 52476U 22049AB  23242.65931018  .00093722  00000-0  57037-2 0  9994,2 52476  53.2157 228.2780 0001348  98.2098 261.9047 15.09636352 73357,6915.447,95.387,538.245,536.38,0.0
52476.0,STARLINK-3835,PAYLOAD,2023-08-31 01:21:12,15.09832378,0.0001742,53.2153,226.4896,99.71,260.409,0.0065712,0.00108838,0.0,0 STARLINK-3835,1 52476U 22049AB  23243.05639050  .00108838  00000-0  65712-2 0  9994,2 52476  53.2153 226.4896 0001742  99.7100 260.4090 15.09832378 73414,6914.849,95.375,537.918,535.509,0.0
52476.0,STARLINK-3835,PAYLOAD,2023-08-31 14:00:01,15.10479182,0.0001201,53.2146,224.1212,86.44,259.3996,-0.0016217,-0.0002719,0.0,0 STARLINK-3835,1 52476U 22049AB  23243.58334491 -.00027190  00000-0 -16217-2 0  9992,2 52476  53.2146 224.1212 0001201  86.4400 259.3996 15.10479182 73491,6912.875,95.334,535.57,533.909,0.0
52476.0,STARLINK-3835,PAYLOAD,2023-08-31 22:00:01,15.10459321,0.0001245,53.2149,222.6199,96.5758,262.8813,0.0024268,0.00040318,0.0,0 STARLINK-3835,1 52476U 22049AB  23243.91668981  .00040318  00000-0  24268-2 0  9993,2 52476  53.2149 222.6199 0001245  96.5758 262.8813 15.10459321  5807,6912.935,95.335,535.661,533.94,0.0
52476.0,STARLINK-3835,PAYLOAD,2023-09-01 06:00:00,15.104838,0.0001271,53.2148,221.1215,84.8331,288.1181,-0.001508,-0.00025314,0.0,0 STARLINK-3835,1 52476U 22049AB  23244.25001157 -.00025314  00000-0 -15080-2 0  9990,2 52476  53.2148 221.1215 0001271  84.8331 288.1181 15.10483800 73594,6912.861,95.334,535.604,533.847,0.0
52476.0,STARLINK-3835,PAYLOAD,2023-09-01 14:00:01,15.1048552,0.0001217,53.2146,219.6204,85.5433,300.9645,-0.0015706,-0.0002635,0.0,0 STARLINK-3835,1 52476U 22049AB  23244.58334491 -.00026350  00000-0 -15706-2 0  9992,2 52476  53.2146 219.6204 0001217  85.5433 300.9645 15.10485520  5856,6912.855,95.334,535.562,533.879,0.0
52476.0,STARLINK-3835,PAYLOAD,2023-09-01 22:00:00,15.10478231,0.0001297,53.2148,218.1194,95.7336,304.3455,0.0022364,0.00037135,0.0,0 STARLINK-3835,1 52476U 22049AB  23244.91667824  .00037135  00000-0  22364-2 0  9997,2 52476  53.2148 218.1194 0001297  95.7336 304.3455 15.10478231 73698,6912.877,95.334,535.639,533.846,0.0
52476.0,STARLINK-3835,PAYLOAD,2023-09-02 06:00:00,15.10502527,0.0001424,53.2148,216.621,86.8868,326.7711,-0.0046467,-0.0007688,0.0,0 STARLINK-3835,1 52476U 22049AB  23245.25001157 -.00076880  00000-0 -46467-2 0  9998,2 52476  53.2148 216.6210 0001424  86.8868 326.7711 15.10502527 73748,6912.803,95.333,535.653,533.684,0.0
52476.0,STARLINK-3835,PAYLOAD,2023-09-02 14:00:01,15.10465248,0.0001431,53.2147,215.1198,90.4771,336.7363,-0.0011754,-0.00019801,0.0,0 STARLINK-3835,1 52476U 22049AB  23245.58334491 -.00019801  00000-0 -11754-2 0  9995,2 52476  53.2147 215.1198 0001431  90.4771 336.7363 15.10465248  5857,6912.917,95.335,535.771,533.793,0.0
52476.0,STARLINK-3835,PAYLOAD,2023-09-02 22:00:00,15.10461133,0.0001518,53.2148,213.6188,97.2131,343.5404,0.0019069,0.00031581,0.0,0 STARLINK-3835,1 52476U 22049AB  23245.91667824  .00031581  00000-0  19069-2 0  9995,2 52476  53.2148 213.6188 0001518  97.2131 343.5404 15.10461133 73846,6912.93,95.335,535.844,533.745,0.0
52476.0,STARLINK-3835,PAYLOAD,2023-09-03 14:00:01,15.10469707,0.0001463,53.2148,210.6193,85.8843,21.9863,-0.00057996,-9.933e-05,0.0,0 STARLINK-3835,1 52476U 22049AB  23246.58334491 -.00009933  00000-0 -57996-3 0  9990,2 52476  53.2148 210.6193 0001463  85.8843  21.9863 15.10469707 73943,6912.904,95.335,535.78,533.757,0.0
52476.0,STARLINK-3835,PAYLOAD,2023-09-04 06:59:36,15.10478787,0.0001623,53.2155,207.4326,86.2027,273.9151,9.4817e-06,-1.35e-06,0.0,0 STARLINK-3835,1 52476U 22049AB  23247.29139251 -.00000135  00000-0  94817-5 0  9995,2 52476  53.2155 207.4326 0001623  86.2027 273.9151 15.10478787 74050,6912.876,95.334,535.863,533.619,0.0
52476.0,STARLINK-3835,PAYLOAD,2023-09-05 03:38:16,15.10479073,0.0001487,53.2153,203.5612,86.057,274.0592,0.00021701,3.322e-05,0.0,0 STARLINK-3835,1 52476U 22049AB  23248.15158040  .00003322  00000-0  21701-3 0  9998,2 52476  53.2153 203.5612 0001487  86.0570 274.0592 15.10479073 75266,6912.875,95.334,535.768,533.712,0.0
52476.0,STARLINK-3835,PAYLOAD,2023-09-06 11:24:07,15.10216433,0.0002299,53.2168,197.6073,134.9299,225.188,-0.0033983,-0.00056027,0.0,0 STARLINK-3835,1 52476U 22049AB  23249.47508291 -.00056027  00000-0 -33983-2 0  9997,2 52476  53.2168 197.6073 0002299 134.9299 225.1880 15.10216433 74387,6913.676,95.351,537.131,533.952,0.0
